{
    "week": 294,
    "satellites": [
        {
            "Name": "BEIDOU-3 M8 (C28)",
            "Line1": "1 43108U 18003B   24331.19921729 -.00000078  00000+0  00000+0 0  9995",
            "Line2": "2 43108  54.8084 322.0233 0005184 266.9004  93.0499  1.86231029 46788",
            "SatelliteNumber": "43108",
            "Classification": "U",
            "LaunchYear": "18",
            "LaunchNumber": "003",
            "PieceOfLaunch": "B",
            "EpochYear": "24",
            "EpochDay": 331.19921729,
            "FirstDerivativeMeanMotion": -7.8e-07,
            "SecondDerivativeMeanMotion": "00000+0",
            "BSTAR": "00000+0",
            "SetNumber": "999",
            "Inclination": 54.8084,
            "RAAN": 322.0233,
            "Eccentricity": 0.0005184,
            "ArgumentOfPerigee": 266.9004,
            "MeanAnomaly": 93.0499,
            "MeanMotion": 1.86231029,
            "RevolutionNumber": "4678"
        },
        {
            "Name": "BEIDOU-3 M4 (C22)",
            "Line1": "1 43207U 18018A   24328.95556500 -.00000021  00000+0  00000+0 0  9990",
            "Line2": "2 43207  56.1550  82.0304 0003749  14.5229 345.4742  1.86231305 46124",
            "SatelliteNumber": "43207",
            "Classification": "U",
            "LaunchYear": "18",
            "LaunchNumber": "018",
            "PieceOfLaunch": "A",
            "EpochYear": "24",
            "EpochDay": 328.955565,
            "FirstDerivativeMeanMotion": -2.1e-07,
            "SecondDerivativeMeanMotion": "00000+0",
            "BSTAR": "00000+0",
            "SetNumber": "999",
            "Inclination": 56.155,
            "RAAN": 82.0304,
            "Eccentricity": 0.0003749,
            "ArgumentOfPerigee": 14.5229,
            "MeanAnomaly": 345.4742,
            "MeanMotion": 1.86231305,
            "RevolutionNumber": "4612"
        },
        {
            "Name": "BEIDOU-3 M3 (C21)",
            "Line1": "1 43208U 18018B   24330.63302902 -.00000031  00000+0  00000+0 0  9995",
            "Line2": "2 43208  56.1558  81.9790 0005744 311.8390  48.0958  1.86231436 46152",
            "SatelliteNumber": "43208",
            "Classification": "U",
            "LaunchYear": "18",
            "LaunchNumber": "018",
            "PieceOfLaunch": "B",
            "EpochYear": "24",
            "EpochDay": 330.63302902,
            "FirstDerivativeMeanMotion": -3.1e-07,
            "SecondDerivativeMeanMotion": "00000+0",
            "BSTAR": "00000+0",
            "SetNumber": "999",
            "Inclination": 56.1558,
            "RAAN": 81.979,
            "Eccentricity": 0.0005744,
            "ArgumentOfPerigee": 311.839,
            "MeanAnomaly": 48.0958,
            "MeanMotion": 1.86231436,
            "RevolutionNumber": "4615"
        },
        {
            "Name": "BEIDOU-3 M9 (C29)",
            "Line1": "1 43245U 18029A   24331.38978983 -.00000078  00000+0  00000+0 0  9990",
            "Line2": "2 43245  54.6935 319.7237 0002207 269.2588  90.7224  1.86232877 45327",
            "SatelliteNumber": "43245",
            "Classification": "U",
            "LaunchYear": "18",
            "LaunchNumber": "029",
            "PieceOfLaunch": "A",
            "EpochYear": "24",
            "EpochDay": 331.38978983,
            "FirstDerivativeMeanMotion": -7.8e-07,
            "SecondDerivativeMeanMotion": "00000+0",
            "BSTAR": "00000+0",
            "SetNumber": "999",
            "Inclination": 54.6935,
            "RAAN": 319.7237,
            "Eccentricity": 0.0002207,
            "ArgumentOfPerigee": 269.2588,
            "MeanAnomaly": 90.7224,
            "MeanMotion": 1.86232877,
            "RevolutionNumber": "4532"
        },
        {
            "Name": "BEIDOU-3 M10 (C30)",
            "Line1": "1 43246U 18029B   24331.31923569 -.00000078  00000+0  00000+0 0  9994",
            "Line2": "2 43246  54.6910 319.7539 0003855 345.2785  14.7169  1.86232938 45311",
            "SatelliteNumber": "43246",
            "Classification": "U",
            "LaunchYear": "18",
            "LaunchNumber": "029",
            "PieceOfLaunch": "B",
            "EpochYear": "24",
            "EpochDay": 331.31923569,
            "FirstDerivativeMeanMotion": -7.8e-07,
            "SecondDerivativeMeanMotion": "00000+0",
            "BSTAR": "00000+0",
            "SetNumber": "999",
            "Inclination": 54.691,
            "RAAN": 319.7539,
            "Eccentricity": 0.0003855,
            "ArgumentOfPerigee": 345.2785,
            "MeanAnomaly": 14.7169,
            "MeanMotion": 1.86232938,
            "RevolutionNumber": "4531"
        },
        {
            "Name": "BEIDOU-2 IGSO-7 (C16)",
            "Line1": "1 43539U 18057A   24331.45139953 -.00000026  00000+0  00000+0 0  9994",
            "Line2": "2 43539  55.1505 167.9730 0078001 232.1497 300.8428  1.00262614 23433",
            "SatelliteNumber": "43539",
            "Classification": "U",
            "LaunchYear": "18",
            "LaunchNumber": "057",
            "PieceOfLaunch": "A",
            "EpochYear": "24",
            "EpochDay": 331.45139953,
            "FirstDerivativeMeanMotion": -2.6e-07,
            "SecondDerivativeMeanMotion": "00000+0",
            "BSTAR": "00000+0",
            "SetNumber": "999",
            "Inclination": 55.1505,
            "RAAN": 167.973,
            "Eccentricity": 0.0078001,
            "ArgumentOfPerigee": 232.1497,
            "MeanAnomaly": 300.8428,
            "MeanMotion": 1.00262614,
            "RevolutionNumber": "2343"
        },
        {
            "Name": "BEIDOU-3 M5 (C23)",
            "Line1": "1 43581U 18062A   24331.00791811  .00000051  00000+0  00000+0 0  9992",
            "Line2": "2 43581  54.1135 201.6269 0002291 334.0511  26.0268  1.86228933 43057",
            "SatelliteNumber": "43581",
            "Classification": "U",
            "LaunchYear": "18",
            "LaunchNumber": "062",
            "PieceOfLaunch": "A",
            "EpochYear": "24",
            "EpochDay": 331.00791811,
            "FirstDerivativeMeanMotion": 5.1e-07,
            "SecondDerivativeMeanMotion": "00000+0",
            "BSTAR": "00000+0",
            "SetNumber": "999",
            "Inclination": 54.1135,
            "RAAN": 201.6269,
            "Eccentricity": 0.0002291,
            "ArgumentOfPerigee": 334.0511,
            "MeanAnomaly": 26.0268,
            "MeanMotion": 1.86228933,
            "RevolutionNumber": "4305"
        },
        {
            "Name": "BEIDOU-3 M6 (C24)",
            "Line1": "1 43582U 18062B   24330.33594172  .00000040  00000+0  00000+0 0  9997",
            "Line2": "2 43582  54.1132 201.6391 0007113  36.9639 323.1714  1.86229991 43049",
            "SatelliteNumber": "43582",
            "Classification": "U",
            "LaunchYear": "18",
            "LaunchNumber": "062",
            "PieceOfLaunch": "B",
            "EpochYear": "24",
            "EpochDay": 330.33594172,
            "FirstDerivativeMeanMotion": 4e-07,
            "SecondDerivativeMeanMotion": "00000+0",
            "BSTAR": "00000+0",
            "SetNumber": "999",
            "Inclination": 54.1132,
            "RAAN": 201.6391,
            "Eccentricity": 0.0007113,
            "ArgumentOfPerigee": 36.9639,
            "MeanAnomaly": 323.1714,
            "MeanMotion": 1.86229991,
            "RevolutionNumber": "4304"
        },
        {
            "Name": "BEIDOU-3 M12 (C26)",
            "Line1": "1 43602U 18067A   24331.34372093  .00000060  00000+0  00000+0 0  9995",
            "Line2": "2 43602  54.2051 200.3009 0008546  33.6051 326.5406  1.86227832 42549",
            "SatelliteNumber": "43602",
            "Classification": "U",
            "LaunchYear": "18",
            "LaunchNumber": "067",
            "PieceOfLaunch": "A",
            "EpochYear": "24",
            "EpochDay": 331.34372093,
            "FirstDerivativeMeanMotion": 6e-07,
            "SecondDerivativeMeanMotion": "00000+0",
            "BSTAR": "00000+0",
            "SetNumber": "999",
            "Inclination": 54.2051,
            "RAAN": 200.3009,
            "Eccentricity": 0.0008546,
            "ArgumentOfPerigee": 33.6051,
            "MeanAnomaly": 326.5406,
            "MeanMotion": 1.86227832,
            "RevolutionNumber": "4254"
        },
        {
            "Name": "BEIDOU-3 M11 (C25)",
            "Line1": "1 43603U 18067B   24330.94024241  .00000053  00000+0  00000+0 0  9992",
            "Line2": "2 43603  54.2025 200.2794 0005177  28.8793 331.2389  1.86227358 42565",
            "SatelliteNumber": "43603",
            "Classification": "U",
            "LaunchYear": "18",
            "LaunchNumber": "067",
            "PieceOfLaunch": "B",
            "EpochYear": "24",
            "EpochDay": 330.94024241,
            "FirstDerivativeMeanMotion": 5.3e-07,
            "SecondDerivativeMeanMotion": "00000+0",
            "BSTAR": "00000+0",
            "SetNumber": "999",
            "Inclination": 54.2025,
            "RAAN": 200.2794,
            "Eccentricity": 0.0005177,
            "ArgumentOfPerigee": 28.8793,
            "MeanAnomaly": 331.2389,
            "MeanMotion": 1.86227358,
            "RevolutionNumber": "4256"
        }
    ]
}